{
    "links": {
        "self": "http://www.neowsapp.com/rest/v1/neo/3831733?api_key=iIulBulltgU6a56xZRHN4H3l9WmuAYTsLGpBGhQ2"
    },
    "id": "3831733",
    "neo_reference_id": "3831733",
    "name": "(2018 TA5)",
    "designation": "2018 TA5",
    "nasa_jpl_url": "http://ssd.jpl.nasa.gov/sbdb.cgi?sstr=3831733",
    "absolute_magnitude_h": 23.5,
    "estimated_diameter": {
        "kilometers": {
            "estimated_diameter_min": 0.0530340723,
            "estimated_diameter_max": 0.1185877909
        },
        "meters": {
            "estimated_diameter_min": 53.0340723319,
            "estimated_diameter_max": 118.5877908577
        },
        "miles": {
            "estimated_diameter_min": 0.0329538346,
            "estimated_diameter_max": 0.0736870142
        },
        "feet": {
            "estimated_diameter_min": 173.9963058693,
            "estimated_diameter_max": 389.0675677576
        }
    },
    "is_potentially_hazardous_asteroid": false,
    "close_approach_data": [
        {
            "close_approach_date": "2018-10-19",
            "close_approach_date_full": "2018-Oct-19 06:20",
            "epoch_date_close_approach": 1539930000000,
            "relative_velocity": {
                "kilometers_per_second": "22.8376154339",
                "kilometers_per_hour": "82215.4155618823",
                "miles_per_hour": "51085.4619639929"
            },
            "miss_distance": {
                "astronomical": "0.0639237454",
                "lunar": "24.8663369606",
                "kilometers": "9562856.154262298",
                "miles": "5942083.2761957924"
            },
            "orbiting_body": "Earth"
        },
        {
            "close_approach_date": "2018-11-08",
            "close_approach_date_full": "2018-Nov-08 09:16",
            "epoch_date_close_approach": 1541668560000,
            "relative_velocity": {
                "kilometers_per_second": "21.3082976552",
                "kilometers_per_hour": "76709.8715586649",
                "miles_per_hour": "47664.5310248827"
            },
            "miss_distance": {
                "astronomical": "0.0457173844",
                "lunar": "17.7840625316",
                "kilometers": "6839223.328211228",
                "miles": "4249696.3151138264"
            },
            "orbiting_body": "Venus"
        },
        {
            "close_approach_date": "2068-02-29",
            "close_approach_date_full": "2068-Feb-29 13:42",
            "epoch_date_close_approach": 3097748520000,
            "relative_velocity": {
                "kilometers_per_second": "7.3422388048",
                "kilometers_per_hour": "26432.0596972858",
                "miles_per_hour": "16423.8539824607"
            },
            "miss_distance": {
                "astronomical": "0.4853930891",
                "lunar": "188.8179116599",
                "kilometers": "72613772.242080217",
                "miles": "45120105.8241203146"
            },
            "orbiting_body": "Juptr"
        }
    ],
    "orbital_data": {
        "orbit_id": "3",
        "orbit_determination_date": "2018-10-16 07:15:41",
        "first_observation_date": "2018-10-10",
        "last_observation_date": "2018-10-15",
        "data_arc_in_days": 5,
        "observations_used": 16,
        "orbit_uncertainty": "9",
        "minimum_orbit_intersection": ".0306811",
        "jupiter_tisserand_invariant": "2.838",
        "epoch_osculation": "2458402.5",
        "eccentricity": ".8025249514482679",
        "semi_major_axis": "2.607376040752092",
        "inclination": "3.899297141423056",
        "ascending_node_longitude": "59.63976219325335",
        "orbital_period": "1537.814432837001",
        "perihelion_distance": ".5148917102401425",
        "perihelion_argument": "57.70523193630405",
        "aphelion_distance": "4.699860371264041",
        "perihelion_time": "2458454.589584770030",
        "mean_anomaly": "347.805908101268",
        "mean_motion": ".2340984661822054",
        "equinox": "J2000",
        "orbit_class": {
            "orbit_class_type": "APO",
            "orbit_class_description": "Near-Earth asteroid orbits which cross the Earth’s orbit similar to that of 1862 Apollo",
            "orbit_class_range": "a (semi-major axis) > 1.0 AU; q (perihelion) < 1.017 AU"
        }
    },
    "is_sentry_object": false
}